[Satellite]
VERSION=1.1
NAME=SL-12 R/B(2)
NICKNAME=SL-12 R/B(2)
TLE1=1 15772U 85042D   20158.13919903 -.00000089  00000-0 -18724-4 0  9997
TLE2=2 15772  71.1078 206.3624 0034685 159.5774 221.4966 14.21270484815608
STATUS=0
